CTC2_L_00497016-05
1 29275U 23918ZI  26037.47797454  .00000000  00000+0  00000-0 0  9992
2 29275 100.8000 180.0000 0000000   0.0000 270.0000 12.77881336    11
CTC2_L_00497016-06
1 29276U 24704ED  26037.47797454  .00000000  00000+0  00000-0 0  9997
2 29276 100.8000 180.0000 0000000   0.0000 315.0000 12.77881336    12
CTC2_L_00497016-07
1 29277U 24342XU  26037.47797454  .00000000  00000+0  00000-0 0  9996
2 29277 100.8000 180.0000 0000000   0.0000   0.0000 12.77881336    14
CTC2_L_00497016-08
1 29278U 25800FO  26037.47797454  .00000000  00000+0  00000-0 0  9997
2 29278 100.8000 180.0000 0000000   0.0000  45.0000 12.77881336    14
CTC2_L_00497017-01
1 29279U 25313IV  26037.47797454  .00000000  00000+0  00000-0 0  9997
2 29279 100.8000 192.0000 0000000   0.0000  96.0000 12.77881336    14
CTC2_L_00497017-02
1 29280U 26134OG  26037.47797454  .00000000  00000+0  00000-0 0  9991
2 29280 100.8000 192.0000 0000000   0.0000 141.0000 12.77881336    17
CTC2_L_00497017-03
1 29281U 23023GV  26037.47797454  .00000000  00000+0  00000-0 0  9996
2 29281 100.8000 192.0000 0000000   0.0000 186.0000 12.77881336    17
CTC2_L_00497017-04
1 29282U 22653L   26037.47797454  .00000000  00000+0  00000-0 0  9995
2 29282 100.8000 192.0000 0000000   0.0000 231.0000 12.77881336    19
CTC2_L_00497017-05
1 29283U 22659XU  26037.47797454  .00000000  00000+0  00000-0 0  9992
2 29283 100.8000 192.0000 0000000   0.0000 276.0000 12.77881336    19
CTC2_L_00497017-06
1 29284U 25762IR  26037.47797454  .00000000  00000+0  00000-0 0  9991
2 29284 100.8000 192.0000 0000000   0.0000 321.0000 12.77881336    11
CTC2_L_00497017-07
1 29285U 23959PI  26037.47797454  .00000000  00000+0  00000-0 0  9998
2 29285 100.8000 192.0000 0000000   0.0000   6.0000 12.77881336    12
CTC2_L_00497017-08
1 29286U 25782QP  26037.47797454  .00000000  00000+0  00000-0 0  9995
2 29286 100.8000 192.0000 0000000   0.0000  51.0000 12.77881336    13
CTC2_L_00497018-01
1 29287U 22295RO  26037.47797454  .00000000  00000+0  00000-0 0  9992
2 29287 100.8000 204.0000 0000000   0.0000 102.0000 12.77881336    15
CTC2_L_00497018-02
1 29288U 26464LK  26037.47797454  .00000000  00000+0  00000-0 0  9995
2 29288 100.8000 204.0000 0000000   0.0000 147.0000 12.77881336    15
CTC2_L_00497018-03
1 29289U 22977QJ  26037.47797454  .00000000  00000+0  00000-0 0  9991
2 29289 100.8000 204.0000 0000000   0.0000 192.0000 12.77881336    16
CTC2_L_00497018-04
1 29290U 25514NG  26037.47797454  .00000000  00000+0  00000-0 0  9993
2 29290 100.8000 204.0000 0000000   0.0000 237.0000 12.77881336    18
CTC2_L_00497018-05
1 29291U 26261CT  26037.47797454  .00000000  00000+0  00000-0 0  9994
2 29291 100.8000 204.0000 0000000   0.0000 282.0000 12.77881336    19
CTC2_L_00497018-06
1 29292U 22503DJ  26037.47797454  .00000000  00000+0  00000-0 0  9990
2 29292 100.8000 204.0000 0000000   0.0000 327.0000 12.77881336    10
CTC2_L_00497018-07
1 29293U 22683UF  26037.47797454  .00000000  00000+0  00000-0 0  9990
2 29293 100.8000 204.0000 0000000   0.0000  12.0000 12.77881336    12
CTC2_L_00497018-08
1 29294U 25148YQ  26037.47797454  .00000000  00000+0  00000-0 0  9990
2 29294 100.8000 204.0000 0000000   0.0000  57.0000 12.77881336    12
CTC2_L_00497019-01
1 29295U 23831PT  26037.47797454  .00000000  00000+0  00000-0 0  9998
2 29295 100.8000 216.0000 0000000   0.0000 108.0000 12.77881336    13
CTC2_L_00497019-02
1 29296U 26455VC  26037.47797454  .00000000  00000+0  00000-0 0  9994
2 29296 100.8000 216.0000 0000000   0.0000 153.0000 12.77881336    14
CTC2_L_00497019-03
1 29297U 24852ZA  26037.47797454  .00000000  00000+0  00000-0 0  9994
2 29297 100.8000 216.0000 0000000   0.0000 198.0000 12.77881336    14
CTC2_L_00497019-04
1 29298U 25367WT  26037.47797454  .00000000  00000+0  00000-0 0  9997
2 29298 100.8000 216.0000 0000000   0.0000 243.0000 12.77881336    16
CTC2_L_00497019-05
1 29299U 25011RG  26037.47797454  .00000000  00000+0  00000-0 0  9994
2 29299 100.8000 216.0000 0000000   0.0000 288.0000 12.77881336    16
CTC2_L_00497019-06
1 29300U 26549NX  26037.47797454  .00000000  00000+0  00000-0 0  9994
2 29300 100.8000 216.0000 0000000   0.0000 333.0000 12.77881336    10
CTC2_L_00497019-07
1 29301U 22161VD  26037.47797454  .00000000  00000+0  00000-0 0  9991
2 29301 100.8000 216.0000 0000000   0.0000  18.0000 12.77881336    11
CTC2_L_00497019-08
1 29302U 23010TD  26037.47797454  .00000000  00000+0  00000-0 0  9996
2 29302 100.8000 216.0000 0000000   0.0000  63.0000 12.77881336    12
CTC2_L_00497020-01
1 29303U 24119PY  26037.47797454  .00000000  00000+0  00000-0 0  9998
2 29303 100.8000 228.0000 0000000   0.0000 114.0000 12.77881336    13
CTC2_L_00497020-02
1 29304U 25847HL  26037.47797454  .00000000  00000+0  00000-0 0  9998
2 29304 100.8000 228.0000 0000000   0.0000 159.0000 12.77881336    13
CTC2_L_00497020-03
1 29305U 26609OB  26037.47797454  .00000000  00000+0  00000-0 0  9996
2 29305 100.8000 228.0000 0000000   0.0000 204.0000 12.77881336    15
CTC2_L_00497020-04
1 29306U 23719DT  26037.47797454  .00000000  00000+0  00000-0 0  9996
2 29306 100.8000 228.0000 0000000   0.0000 249.0000 12.77881336    15
CTC2_L_00497020-05
1 29307U 23365WB  26037.47797454  .00000000  00000+0  00000-0 0  9994
2 29307 100.8000 228.0000 0000000   0.0000 294.0000 12.77881336    16
CTC2_L_00497020-06
1 29308U 26502FW  26037.47797454  .00000000  00000+0  00000-0 0  9991
2 29308 100.8000 228.0000 0000000   0.0000 339.0000 12.77881336    17
CTC2_L_00497020-07
1 29309U 24388VX  26037.47797454  .00000000  00000+0  00000-0 0  9992
2 29309 100.8000 228.0000 0000000   0.0000  24.0000 12.77881336    19
CTC2_L_00497020-08
1 29310U 25391DR  26037.47797454  .00000000  00000+0  00000-0 0  9999
2 29310 100.8000 228.0000 0000000   0.0000  69.0000 12.77881336    10
CTC2_L_00497021-01
1 29311U 23363NL  26037.47797454  .00000000  00000+0  00000-0 0  9997
2 29311 100.8000 240.0000 0000000   0.0000 120.0000 12.77881336    13
CTC2_L_00497021-02
1 29312U 26058IO  26037.47797454  .00000000  00000+0  00000-0 0  9992
2 29312 100.8000 240.0000 0000000   0.0000 165.0000 12.77881336    13
CTC2_L_00497021-03
1 29313U 26863GK  26037.47797454  .00000000  00000+0  00000-0 0  9997
2 29313 100.8000 240.0000 0000000   0.0000 210.0000 12.77881336    15
CTC2_L_00497021-04
1 29314U 24119TT  26037.47797454  .00000000  00000+0  00000-0 0  9990
2 29314 100.8000 240.0000 0000000   0.0000 255.0000 12.77881336    15
CTC2_L_00497021-05
1 29315U 26390ZK  26037.47797454  .00000000  00000+0  00000-0 0  9994
2 29315 100.8000 240.0000 0000000   0.0000 300.0000 12.77881336    17
CTC2_L_00497021-06
1 29316U 22163TE  26037.47797454  .00000000  00000+0  00000-0 0  9999
2 29316 100.8000 240.0000 0000000   0.0000 345.0000 12.77881336    17
CTC2_L_00497021-07
1 29317U 23760PF  26037.47797454  .00000000  00000+0  00000-0 0  9994
2 29317 100.8000 240.0000 0000000   0.0000  30.0000 12.77881336    19
CTC2_L_00497021-08
1 29318U 22315M   26037.47797454  .00000000  00000+0  00000-0 0  9990
2 29318 100.8000 240.0000 0000000   0.0000  75.0000 12.77881336    19
CTC2_L_00497022-01
1 29319U 25273XR  26037.47797454  .00000000  00000+0  00000-0 0  9997
2 29319 100.8000 252.0000 0000000   0.0000 126.0000 12.77881336    10
CTC2_L_00497022-02
1 29320U 26888CR  26037.47797454  .00000000  00000+0  00000-0 0  9992
2 29320 100.8000 252.0000 0000000   0.0000 171.0000 12.77881336    12
CTC2_L_00497022-03
1 29321U 26964KM  26037.47797454  .00000000  00000+0  00000-0 0  9998
2 29321 100.8000 252.0000 0000000   0.0000 216.0000 12.77881336    13
CTC2_L_00497022-04
1 29322U 23345QO  26037.47797454  .00000000  00000+0  00000-0 0  9999
2 29322 100.8000 252.0000 0000000   0.0000 261.0000 12.77881336    14
CTC2_L_00497022-05
1 29323U 25097PS  26037.47797454  .00000000  00000+0  00000-0 0  9996
2 29323 100.8000 252.0000 0000000   0.0000 306.0000 12.77881336    15
CTC2_L_00497022-06
1 29324U 26020PR  26037.47797454  .00000000  00000+0  00000-0 0  9994
2 29324 100.8000 252.0000 0000000   0.0000 351.0000 12.77881336    16
CTC2_L_00497022-07
1 29325U 26450YC  26037.47797454  .00000000  00000+0  00000-0 0  9992
2 29325 100.8000 252.0000 0000000   0.0000  36.0000 12.77881336    17
CTC2_L_00497022-08
1 29326U 22192TG  26037.47797454  .00000000  00000+0  00000-0 0  9992
2 29326 100.8000 252.0000 0000000   0.0000  81.0000 12.77881336    18
CTC2_L_00497023-01
1 29327U 26015FL  26037.47797454  .00000000  00000+0  00000-0 0  9991
2 29327 100.8000 264.0000 0000000   0.0000 132.0000 12.77881336    19
CTC2_L_00497023-02
1 29328U 23449ER  26037.47797454  .00000000  00000+0  00000-0 0  9990
2 29328 100.8000 264.0000 0000000   0.0000 177.0000 12.77881336    19
CTC2_L_00497023-03
1 29329U 23870SB  26037.47797454  .00000000  00000+0  00000-0 0  9999
2 29329 100.8000 264.0000 0000000   0.0000 222.0000 12.77881336    11
CTC2_L_00497023-04
1 29330U 22935GF  26037.47797454  .00000000  00000+0  00000-0 0  9992
2 29330 100.8000 264.0000 0000000   0.0000 267.0000 12.77881336    12
CTC2_L_00497023-05
1 29331U 23486YU  26037.47797454  .00000000  00000+0  00000-0 0  9995
2 29331 100.8000 264.0000 0000000   0.0000 312.0000 12.77881336    14
CTC2_L_00497023-06
1 29332U 23354CK  26037.47797454  .00000000  00000+0  00000-0 0  9990
2 29332 100.8000 264.0000 0000000   0.0000 357.0000 12.77881336    14
CTC2_L_00497023-07
1 29333U 24337PJ  26037.47797454  .00000000  00000+0  00000-0 0  9993
2 29333 100.8000 264.0000 0000000   0.0000  42.0000 12.77881336    16
CTC2_L_00497023-08
1 29334U 22676OW  26037.47797454  .00000000  00000+0  00000-0 0  9998
2 29334 100.8000 264.0000 0000000   0.0000  87.0000 12.77881336    16
CTC2_L_00497024-01
1 29335U 26233ES  26037.47797454  .00000000  00000+0  00000-0 0  9992
2 29335 100.8000 276.0000 0000000   0.0000 138.0000 12.77881336    17
CTC2_L_00497024-02
1 29336U 24921SI  26037.47797454  .00000000  00000+0  00000-0 0  9995
2 29336 100.8000 276.0000 0000000   0.0000 183.0000 12.77881336    18
